1 45590U 20025BM  23001.17923773 -.00000593  00000-0 -20943-4 0  9998
2 45590  53.0542 289.8199 0001786  47.6254 312.4886 15.06390938149123
1 45590U 20025BM  23001.51096891 -.00004593  00000-0 -28970-3 0  9999
2 45590  53.0544 288.3303 0001994  49.3542 310.7620 15.06386167149784
1 45590U 20025BM  23001.77635668 -.00005342  00000-0 -34011-3 0  9994
2 45590  53.0545 287.1386 0001985  48.2964 311.8195 15.06387454149823
1 45590U 20025BM  23002.50616638 -.00001513  00000-0 -82659-4 0  9990
2 45590  53.0543 283.8631 0001974  49.8650 310.2511 15.06402728149933
1 45590U 20025BM  23002.50616638 -.00001513  00000-0 -82659-4 0  9990
2 45590  53.0543 283.8631 0001974  49.8650 310.2511 15.06402728149326
1 45590U 20025BM  23002.77155910  .00000628  00000-0  61098-4 0  9998
2 45590  53.0548 282.6720 0001898  51.9725 308.1435 15.06394172149974
1 45590U 20025BM  23002.77155910  .00000628  00000-0  61098-4 0  9998
2 45590  53.0548 282.6720 0001898  51.9725 308.1435 15.06394172149367
1 45590U 20025BM  23003.50137974  .00005137  00000-0  36354-3 0  9996
2 45590  53.0539 279.3948 0001873  52.4688 307.6471 15.06395850150088
1 45590U 20025BM  23003.96581097  .00003325  00000-0  24208-3 0  9997
2 45590  53.0536 277.3102 0001866  52.5693 307.5466 15.06393547150156
1 45590U 20025BM  23003.96581097  .00003325  00000-0  24208-3 0  9997
2 45590  53.0536 277.3102 0001866  52.5693 307.5466 15.06393547149547
1 45590U 20025BM  23004.82831063  .00005597  00000-0  39421-3 0  9990
2 45590  53.0535 273.4383 0001896  52.8147 307.3015 15.06412484150287
1 45590U 20025BM  23004.82831063  .00005597  00000-0  39421-3 0  9990
2 45590  53.0535 273.4383 0001896  52.8147 307.3015 15.06412484149678
1 45590U 20025BM  23005.42542770  .00001990  00000-0  15241-3 0  9998
2 45590  53.0537 270.7574 0001853  53.4691 306.6468 15.06407961150373
1 45590U 20025BM  23005.42542770  .00001990  00000-0  15241-3 0  9998
2 45590  53.0537 270.7574 0001853  53.4691 306.6468 15.06407961149764
1 45590U 20025BM  23005.75715813  .00005460  00000-0  38500-3 0  9993
2 45590  53.0535 269.2680 0001786  51.9919 308.1231 15.06417986150422
1 45590U 20025BM  23006.42063097 -.00002315  00000-0 -13657-3 0  9992
2 45590  53.0528 266.2924 0001343  49.0529 311.0576 15.06394856149913
1 45590U 20025BM  23006.75237350 -.00005348  00000-0 -34053-3 0  9995
2 45590  53.0527 264.8017 0001832  56.6734 303.4430 15.06382757149960
1 45590U 20025BM  23006.81872083 -.00004650  00000-0 -29361-3 0  9991
2 45590  53.0528 264.5040 0001826  55.4210 304.6951 15.06383609150581
1 45590U 20025BM  23007.08410986 -.00001914  00000-0 -10966-3 0  9992
2 45590  53.0526 263.3123 0001862  55.8784 304.2382 15.06388367150623
1 45590U 20025BM  23007.41584423  .00002112  00000-0  16066-3 0  9993
2 45590  53.0527 261.8227 0001813  56.0031 304.1130 15.06395480150068
1 45590U 20025BM  23007.94662235  .00006361  00000-0  44558-3 0  9996
2 45590  53.0524 259.4401 0001818  57.1798 302.9366 15.06398031150757
1 45590U 20025BM  23008.07932213  .00003930  00000-0  28266-3 0  9994
2 45590  53.0523 258.8447 0001817  57.8623 302.2543 15.06388376150168
1 45590U 20025BM  23008.54374787  .00009338  00000-0  64487-3 0  9995
2 45590  53.0519 256.7597 0001811  57.0540 303.0623 15.06404735150841
1 45590U 20025BM  23008.80913340  .00011831  00000-0  81158-3 0  9993
2 45590  53.0514 255.5678 0001773  57.8321 302.2840 15.06410938150276
1 45590U 20025BM  23008.94182743  .00009181  00000-0  63427-3 0  9997
2 45590  53.0513 254.9722 0001855  57.7732 302.3436 15.06409343150904
1 45590U 20025BM  23009.07452118  .00006955  00000-0  48530-3 0  9992
2 45590  53.0520 254.3764 0001665  63.0548 297.0611 15.06405957150313
1 45590U 20025BM  23009.47259930  .00007244  00000-0  50452-3 0  9991
2 45590  53.0521 252.5901 0001741  54.7331 305.3820 15.06411914150987
1 45590U 20025BM  23009.67164035  .00002919  00000-0  21475-3 0  9991
2 45590  53.0522 251.6959 0001560  55.6078 304.5058 15.06404782150404
1 45590U 20025BM  23009.93702728  .00002765  00000-0  20440-3 0  9997
2 45590  53.0521 250.5045 0001673  53.5601 306.5542 15.06405156151059
1 45590U 20025BM  23010.06971977  .00004347  00000-0  31045-3 0  9998
2 45590  53.0520 249.9094 0001706  52.8837 307.2308 15.06408459151073
1 45590U 20025BM  23010.99857442  .00004397  00000-0  31382-3 0  9999
2 45590  53.0519 245.7378 0001636  56.4128 303.7017 15.06405920151219
1 45590U 20025BM  23010.99857442  .00004397  00000-0  31382-3 0  9999
2 45590  53.0519 245.7378 0001636  56.4128 303.7017 15.06405920150601
1 45590U 20025BM  23011.92742963  .00002149  00000-0  16313-3 0  9994
2 45590  53.0516 241.5683 0001688  57.7249 302.3904 15.06402637151351
1 45590U 20025BM  23012.06012499  .00000277  00000-0  37469-4 0  9990
2 45590  53.0521 240.9730 0001714  53.1105 307.0041 15.06397422150767
1 45590U 20025BM  23012.92262665  .00003347  00000-0  24343-3 0  9994
2 45590  53.0523 237.1006 0001577  52.4167 307.6965 15.06408905151503
1 45590U 20025BM  23012.92262665  .00003347  00000-0  24343-3 0  9994
2 45590  53.0523 237.1006 0001577  52.4167 307.6965 15.06408905150894
1 45590U 20025BM  23013.32071547 -.00000470  00000-0 -12668-4 0  9990
2 45590  53.0522 235.3136 0001580  59.2340 300.8805 15.06393539151568
1 45590U 20025BM  23013.32071547 -.00000470  00000-0 -12668-4 0  9990
2 45590  53.0522 235.3136 0001580  59.2340 300.8805 15.06393539150950
1 45590U 20025BM  23013.78515232 -.00001351  00000-0 -71862-4 0  9994
2 45590  53.0526 233.2286 0001624  62.1143 298.0010 15.06383822151636
1 45590U 20025BM  23013.98419200 -.00001453  00000-0 -78679-4 0  9990
2 45590  53.0522 232.3349 0001631  62.6540 297.4615 15.06384843151050
1 45590U 20025BM  23014.97940087  .00011251  00000-0  77303-3 0  9999
2 45590  53.0521 227.8677 0001660  68.2773 291.8392 15.06398393151206
1 45590U 20025BM  23015.57652463  .00005919  00000-0  41596-3 0  9993
2 45590  53.0518 225.1868 0001622  68.6914 291.4248 15.06397491151905
1 45590U 20025BM  23015.84191128  .00005448  00000-0  38435-3 0  9994
2 45590  53.0519 223.9955 0001476  68.1622 291.9524 15.06399851151945
1 45590U 20025BM  23015.84191128  .00005448  00000-0  38435-3 0  9994
2 45590  53.0519 223.9955 0001476  68.1622 291.9524 15.06399851151338
1 45590U 20025BM  23016.57172767  .00002820  00000-0  20816-3 0  9998
2 45590  53.0504 220.7184 0001736  77.3097 282.8086 15.06399438152051
1 45590U 20025BM  23016.83711545  .00002216  00000-0  16763-3 0  9995
2 45590  53.0507 219.5268 0001677  78.2248 281.8929 15.06398724152091
1 45590U 20025BM  23016.83711545  .00002216  00000-0  16763-3 0  9995
2 45590  53.0507 219.5268 0001677  78.2248 281.8929 15.06398724151483
1 45590U 20025BM  23017.56693219  .00001128  00000-0  94622-4 0  9995
2 45590  53.0510 216.2505 0001638  79.8101 280.3073 15.06396950152201
1 45590U 20025BM  23017.56693219  .00001128  00000-0  94622-4 0  9995
2 45590  53.0510 216.2505 0001638  79.8101 280.3073 15.06396950151592
1 45590U 20025BM  23018.49578787  .00002451  00000-0  18340-3 0  9992
2 45590  53.0514 212.0809 0001554  79.3125 280.8039 15.06399308152346
1 45590U 20025BM  23018.82752146  .00002345  00000-0  17628-3 0  9992
2 45590  53.0526 210.5924 0001445  77.0802 283.0348 15.06400480152393
1 45590U 20025BM  23018.82752146  .00002345  00000-0  17628-3 0  9992
2 45590  53.0526 210.5924 0001445  77.0802 283.0348 15.06400480151785
1 45590U 20025BM  23019.55733924  .00000201  00000-0  32385-4 0  9993
2 45590  53.0528 207.3159 0001405  85.9499 274.1650 15.06394957152506
1 45590U 20025BM  23019.55733924  .00000201  00000-0  32385-4 0  9993
2 45590  53.0528 207.3159 0001405  85.9499 274.1650 15.06394957151897
1 45590U 20025BM  23020.22080695  .00001287  00000-0  10530-3 0  9991
2 45590  53.0540 204.3376 0001374  87.4515 272.6631 15.06399795152607
1 45590U 20025BM  23020.75157799  .00001580  00000-0  12491-3 0  9993
2 45590  53.0541 201.9547 0001391  86.6418 273.4730 15.06403778152070
1 45590U 20025BM  23021.48139689  .00001338  00000-0  10871-3 0  9993
2 45590  53.0543 198.6782 0001394  86.1414 273.9735 15.06397149152185
1 45590U 20025BM  23022.74198529  .00000328  00000-0  40879-4 0  9991
2 45590  53.0542 193.0188 0001333  85.9555 274.1587 15.06400064152379
1 45590U 20025BM  23023.73719093  .00001918  00000-0  14765-3 0  9996
2 45590  53.0534 188.5505 0001260  85.7510 274.3623 15.06392205152527
1 45590U 20025BM  23025.13047461  .00000384  00000-0  44651-4 0  9999
2 45590  53.0530 182.2968 0001096  77.9098 282.2013 15.06396707152733
1 45590U 20025BM  23025.46221729 -.00000241  00000-0  26774-5 0  9996
2 45590  53.0530 180.8063 0001279  89.9885 270.1250 15.06386952153396
1 45590U 20025BM  23025.46221729 -.00000241  00000-0  26774-5 0  9996
2 45590  53.0530 180.8063 0001279  89.9885 270.1250 15.06386952152788
1 45590U 20025BM  23025.72760067  .00000423  00000-0  47298-4 0  9992
2 45590  53.0534 179.6155 0001263  94.4040 265.7093 15.06393009153436
1 45590U 20025BM  23025.72760067  .00000423  00000-0  47298-4 0  9992
2 45590  53.0534 179.6155 0001263  94.4040 265.7093 15.06393009152828
1 45590U 20025BM  23026.59011567 -.00000490  00000-0 -14045-4 0  9992
2 45590  53.0540 175.7433 0001126  85.5223 274.5895 15.06390998153567
1 45590U 20025BM  23026.72281413 -.00001402  00000-0 -75293-4 0  9992
2 45590  53.0544 175.1470 0001136  84.2380 275.8738 15.06386648152978
1 45590U 20025BM  23027.45264494 -.00000771  00000-0 -32917-4 0  9997
2 45590  53.0547 171.8723 0001121  91.1970 268.9147 15.06372332153086
1 45590U 20025BM  23027.58533532  .00000021  00000-0  20315-4 0  9998
2 45590  53.0555 171.2776 0001329  78.8682 281.2456 15.06379918153717
1 45590U 20025BM  23027.71802714  .00000018  00000-0  20084-4 0  9993
2 45590  53.0551 170.6811 0001301  78.9749 281.1386 15.06384922153735
1 45590U 20025BM  23027.71802714  .00000018  00000-0  20084-4 0  9993
2 45590  53.0551 170.6811 0001301  78.9749 281.1386 15.06384922153128
1 45590U 20025BM  23028.11610399  .00000639  00000-0  61814-4 0  9999
2 45590  53.0549 168.8933 0001186  83.7641 276.3483 15.06392423153180
